{
  "type": "FeatureCollection",
  "features": [
    {
      "type": "Feature",
      "properties": {
        "norad_id": 34540,
        "name": "IRIDIUM 33 DEB",
        "group": "iridium-33-debris",
        "lat": -45.869318246888966,
        "lon": 129.30153874269348,
        "alt_km": 649.2294372686138,
        "timestamp": "2025-12-17T09:00:17.533241+00:00",
        "meta_object_name": "IRIDIUM 33 DEB",
        "meta_object_id": "1997-051JH",
        "meta_epoch": "2025-12-16T22:31:00.894720",
        "meta_mean_motion": 14.75409627,
        "meta_eccentricity": 0.00170863,
        "meta_inclination": 86.3099,
        "meta_ra_of_asc_node": 305.6869,
        "meta_arg_of_pericenter": 144.3412,
        "meta_mean_anomaly": 281.7775,
        "meta_ephemeris_type": 0,
        "meta_classification_type": "U",
        "meta_norad_cat_id": 34540,
        "meta_element_set_no": 999,
        "meta_rev_at_epoch": 89083,
        "meta_bstar": 0.0012022226,
        "meta_mean_motion_dot": 8.208e-05,
        "meta_mean_motion_ddot": 0,
        "tle_line1": "1 34540U 97051JH  25350.93820480  .00008208  00000+0  12022-2 0  9993",
        "tle_line2": "2 34540  86.3099 305.6869 0017086 144.3412 281.7775 14.75409627890831"
      },
      "geometry": {
        "type": "Point",
        "coordinates": [
          129.30153874269348,
          -45.869318246888966
        ]
      }
    },
    {
      "type": "Feature",
      "properties": {
        "norad_id": 34648,
        "name": "IRIDIUM 33 DEB",
        "group": "iridium-33-debris",
        "lat": 31.236876500930325,
        "lon": -77.73111758732693,
        "alt_km": 888.3526964317325,
        "timestamp": "2025-12-17T09:00:17.533251+00:00",
        "meta_object_name": "IRIDIUM 33 DEB",
        "meta_object_id": "1997-051JZ",
        "meta_epoch": "2025-12-16T12:26:32.846208",
        "meta_mean_motion": 14.11615527,
        "meta_eccentricity": 0.01816215,
        "meta_inclination": 86.3905,
        "meta_ra_of_asc_node": 280.4208,
        "meta_arg_of_pericenter": 287.0786,
        "meta_mean_anomaly": 71.0574,
        "meta_ephemeris_type": 0,
        "meta_classification_type": "U",
        "meta_norad_cat_id": 34648,
        "meta_element_set_no": 999,
        "meta_rev_at_epoch": 85014,
        "meta_bstar": 0.0054188563,
        "meta_mean_motion_dot": 0.00011523,
        "meta_mean_motion_ddot": 0,
        "tle_line1": "1 34648U 97051JZ  25350.51843572  .00011523  00000+0  54189-2 0  9997",
        "tle_line2": "2 34648  86.3905 280.4208 0181621 287.0786  71.0574 14.11615527850144"
      },
      "geometry": {
        "type": "Point",
        "coordinates": [
          -77.73111758732693,
          31.236876500930325
        ]
      }
    },
    {
      "type": "Feature",
      "properties": {
        "norad_id": 34651,
        "name": "IRIDIUM 33 DEB",
        "group": "iridium-33-debris",
        "lat": -33.796204305292115,
        "lon": 136.11116095308498,
        "alt_km": 885.8086609593465,
        "timestamp": "2025-12-17T09:00:17.533261+00:00",
        "meta_object_name": "IRIDIUM 33 DEB",
        "meta_object_id": "1997-051KC",
        "meta_epoch": "2025-12-16T21:22:39.844416",
        "meta_mean_motion": 14.25886119,
        "meta_eccentricity": 0.01422439,
        "meta_inclination": 86.2825,
        "meta_ra_of_asc_node": 138.8115,
        "meta_arg_of_pericenter": 190.7823,
        "meta_mean_anomaly": 169.0312,
        "meta_ephemeris_type": 0,
        "meta_classification_type": "U",
        "meta_norad_cat_id": 34651,
        "meta_element_set_no": 999,
        "meta_rev_at_epoch": 85955,
        "meta_bstar": 0.0025009012,
        "meta_mean_motion_dot": 6.641e-05,
        "meta_mean_motion_ddot": 0,
        "tle_line1": "1 34651U 97051KC  25350.89073894  .00006641  00000+0  25009-2 0  9998",
        "tle_line2": "2 34651  86.2825 138.8115 0142243 190.7823 169.0312 14.25886119859554"
      },
      "geometry": {
        "type": "Point",
        "coordinates": [
          136.11116095308498,
          -33.796204305292115
        ]
      }
    },
    {
      "type": "Feature",
      "properties": {
        "norad_id": 34652,
        "name": "IRIDIUM 33 DEB",
        "group": "iridium-33-debris",
        "lat": -79.07154102113367,
        "lon": 177.34597324872058,
        "alt_km": 676.9851096569137,
        "timestamp": "2025-12-17T09:00:17.533272+00:00",
        "meta_object_name": "IRIDIUM 33 DEB",
        "meta_object_id": "1997-051KD",
        "meta_epoch": "2025-12-16T23:51:48.766752",
        "meta_mean_motion": 14.62098936,
        "meta_eccentricity": 0.00256549,
        "meta_inclination": 86.3313,
        "meta_ra_of_asc_node": 338.1074,
        "meta_arg_of_pericenter": 282.6722,
        "meta_mean_anomaly": 133.581,
        "meta_ephemeris_type": 0,
        "meta_classification_type": "U",
        "meta_norad_cat_id": 34652,
        "meta_element_set_no": 999,
        "meta_rev_at_epoch": 88546,
        "meta_bstar": 0.00074140559,
        "meta_mean_motion_dot": 3.763e-05,
        "meta_mean_motion_ddot": 0,
        "tle_line1": "1 34652U 97051KD  25350.99431443  .00003763  00000+0  74141-3 0  9992",
        "tle_line2": "2 34652  86.3313 338.1074 0025654 282.6722 133.5810 14.62098936885463"
      },
      "geometry": {
        "type": "Point",
        "coordinates": [
          177.34597324872058,
          -79.07154102113367
        ]
      }
    },
    {
      "type": "Feature",
      "properties": {
        "norad_id": 34690,
        "name": "IRIDIUM 33 DEB",
        "group": "iridium-33-debris",
        "lat": 6.216829640745913,
        "lon": 35.372490931815,
        "alt_km": 703.9371702878789,
        "timestamp": "2025-12-17T09:00:17.533281+00:00",
        "meta_object_name": "IRIDIUM 33 DEB",
        "meta_object_id": "1997-051KM",
        "meta_epoch": "2025-12-16T09:55:15.693312",
        "meta_mean_motion": 14.55109734,
        "meta_eccentricity": 0.00103944,
        "meta_inclination": 86.3782,
        "meta_ra_of_asc_node": 35.3951,
        "meta_arg_of_pericenter": 17.6085,
        "meta_mean_anomaly": 353.5681,
        "meta_ephemeris_type": 0,
        "meta_classification_type": "U",
        "meta_norad_cat_id": 34690,
        "meta_element_set_no": 999,
        "meta_rev_at_epoch": 88148,
        "meta_bstar": 0.00032549002,
        "meta_mean_motion_dot": 1.426e-05,
        "meta_mean_motion_ddot": 0,
        "tle_line1": "1 34690U 97051KM  25350.41337608  .00001426  00000+0  32549-3 0  9999",
        "tle_line2": "2 34690  86.3782  35.3951 0010394  17.6085 353.5681 14.55109734881487"
      },
      "geometry": {
        "type": "Point",
        "coordinates": [
          35.372490931815,
          6.216829640745913
        ]
      }
    },
    {
      "type": "Feature",
      "properties": {
        "norad_id": 34693,
        "name": "IRIDIUM 33 DEB",
        "group": "iridium-33-debris",
        "lat": -18.18145194034911,
        "lon": 122.73586774435356,
        "alt_km": 491.64383632111003,
        "timestamp": "2025-12-17T09:00:17.533292+00:00",
        "meta_object_name": "IRIDIUM 33 DEB",
        "meta_object_id": "1997-051KQ",
        "meta_epoch": "2025-12-16T21:25:18.444576",
        "meta_mean_motion": 15.28941995,
        "meta_eccentricity": 0.00125804,
        "meta_inclination": 86.3045,
        "meta_ra_of_asc_node": 301.7597,
        "meta_arg_of_pericenter": 45.7689,
        "meta_mean_anomaly": 17.5251,
        "meta_ephemeris_type": 0,
        "meta_classification_type": "U",
        "meta_norad_cat_id": 34693,
        "meta_element_set_no": 999,
        "meta_rev_at_epoch": 88978,
        "meta_bstar": 0.0037873204,
        "meta_mean_motion_dot": 0.00108025,
        "meta_mean_motion_ddot": 0,
        "tle_line1": "1 34693U 97051KQ  25350.89257459  .00108025  00000+0  37873-2 0  9996",
        "tle_line2": "2 34693  86.3045 301.7597 0012580  45.7689  17.5251 15.28941995889784"
      },
      "geometry": {
        "type": "Point",
        "coordinates": [
          122.73586774435356,
          -18.18145194034911
        ]
      }
    },
    {
      "type": "Feature",
      "properties": {
        "norad_id": 34696,
        "name": "IRIDIUM 33 DEB",
        "group": "iridium-33-debris",
        "lat": -46.056832442551745,
        "lon": 21.396659871204466,
        "alt_km": 732.488140412951,
        "timestamp": "2025-12-17T09:00:17.533302+00:00",
        "meta_object_name": "IRIDIUM 33 DEB",
        "meta_object_id": "1997-051KT",
        "meta_epoch": "2025-12-16T02:20:41.724096",
        "meta_mean_motion": 14.6527848,
        "meta_eccentricity": 0.00739247,
        "meta_inclination": 86.1857,
        "meta_ra_of_asc_node": 25.9602,
        "meta_arg_of_pericenter": 156.1552,
        "meta_mean_anomaly": 262.9531,
        "meta_ephemeris_type": 0,
        "meta_classification_type": "U",
        "meta_norad_cat_id": 34696,
        "meta_element_set_no": 999,
        "meta_rev_at_epoch": 86722,
        "meta_bstar": 0.0030139248,
        "meta_mean_motion_dot": 0.00016962,
        "meta_mean_motion_ddot": 0,
        "tle_line1": "1 34696U 97051KT  25350.09770514  .00016962  00000+0  30139-2 0  9999",
        "tle_line2": "2 34696  86.1857  25.9602 0073924 156.1552 262.9531 14.65278480867227"
      },
      "geometry": {
        "type": "Point",
        "coordinates": [
          21.396659871204466,
          -46.056832442551745
        ]
      }
    }
  ]
}